{
"type": "FeatureCollection",
"name": "candidate_sites",
"crs": { "type": "name", "properties": { "name": "urn:ogc:def:crs:OGC:1.3:CRS84" } },
"features": [
{ "type": "Feature", "properties": { "site_name": "Greenfield Senior Center", "latitude": 40.424295, "longitude": -79.93623, "type": "Senior Center (Existing)", "is_existing_center": true, "site_id": 0 }, "geometry": { "type": "Point", "coordinates": [ -79.93623, 40.424295 ] } },
{ "type": "Feature", "properties": { "site_name": "Homewood Senior Center", "latitude": 40.4568575, "longitude": -79.8935651, "type": "Senior Center (Existing)", "is_existing_center": true, "site_id": 1 }, "geometry": { "type": "Point", "coordinates": [ -79.8935651, 40.4568575 ] } },
{ "type": "Feature", "properties": { "site_name": "Sheraden Senior Center", "latitude": 40.4551497, "longitude": -80.0566851, "type": "Senior Center (Existing)", "is_existing_center": true, "site_id": 2 }, "geometry": { "type": "Point", "coordinates": [ -80.0566851, 40.4551497 ] } },
{ "type": "Feature", "properties": { "site_name": "South Side Senior Center", "latitude": 40.4235543, "longitude": -79.966615, "type": "Senior Center (Existing)", "is_existing_center": true, "site_id": 3 }, "geometry": { "type": "Point", "coordinates": [ -79.966615, 40.4235543 ] } },
{ "type": "Feature", "properties": { "site_name": "Mount Washington Senior Center", "latitude": 40.429882, "longitude": -80.008315, "type": "Senior Center (Existing)", "is_existing_center": true, "site_id": 4 }, "geometry": { "type": "Point", "coordinates": [ -80.008315, 40.429882 ] } },
{ "type": "Feature", "properties": { "site_name": "Allegheny Senior Center", "latitude": 40.4311588, "longitude": -80.0689405, "type": "Senior/Community Center", "is_existing_center": false, "site_id": 5 }, "geometry": { "type": "Point", "coordinates": [ -80.0689405, 40.4311588 ] } },
{ "type": "Feature", "properties": { "site_name": "Lawrenceville Senior Center", "latitude": 40.4676651, "longitude": -79.9585976, "type": "Senior/Community Center", "is_existing_center": false, "site_id": 6 }, "geometry": { "type": "Point", "coordinates": [ -79.9585976, 40.4676651 ] } },
{ "type": "Feature", "properties": { "site_name": "Hazelwood Senior Center", "latitude": 40.412428, "longitude": -79.9443368, "type": "Senior/Community Center", "is_existing_center": false, "site_id": 7 }, "geometry": { "type": "Point", "coordinates": [ -79.9443368, 40.412428 ] } },
{ "type": "Feature", "properties": { "site_name": "Hill House Senior Center", "latitude": 40.442733, "longitude": -79.9822265, "type": "Senior/Community Center", "is_existing_center": false, "site_id": 8 }, "geometry": { "type": "Point", "coordinates": [ -79.9822265, 40.442733 ] } },
{ "type": "Feature", "properties": { "site_name": "Northview Heights Community Center", "latitude": 40.4779316, "longitude": -79.9998276, "type": "Senior/Community Center", "is_existing_center": false, "site_id": 9 }, "geometry": { "type": "Point", "coordinates": [ -79.9998276, 40.4779316 ] } },
{ "type": "Feature", "properties": { "site_name": "Arlington Community Center", "latitude": 40.4192352, "longitude": -79.9750104, "type": "Senior/Community Center", "is_existing_center": false, "site_id": 10 }, "geometry": { "type": "Point", "coordinates": [ -79.9750104, 40.4192352 ] } },
{ "type": "Feature", "properties": { "site_name": "Brookline Community Center", "latitude": 40.3960505, "longitude": -80.0226609, "type": "Senior/Community Center", "is_existing_center": false, "site_id": 11 }, "geometry": { "type": "Point", "coordinates": [ -80.0226609, 40.3960505 ] } },
{ "type": "Feature", "properties": { "site_name": "East Liberty Community Center", "latitude": 40.4621005, "longitude": -79.9264941, "type": "Senior/Community Center", "is_existing_center": false, "site_id": 12 }, "geometry": { "type": "Point", "coordinates": [ -79.9264941, 40.4621005 ] } },
{ "type": "Feature", "properties": { "site_name": "Beechview Community Center", "latitude": 40.4106798, "longitude": -80.0243862, "type": "Senior/Community Center", "is_existing_center": false, "site_id": 13 }, "geometry": { "type": "Point", "coordinates": [ -80.0243862, 40.4106798 ] } },
{ "type": "Feature", "properties": { "site_name": "Carrick Community Center", "latitude": 40.3994596, "longitude": -79.9889174, "type": "Senior/Community Center", "is_existing_center": false, "site_id": 14 }, "geometry": { "type": "Point", "coordinates": [ -79.9889174, 40.3994596 ] } },
{ "type": "Feature", "properties": { "site_name": "Manchester Community Center", "latitude": 40.455313, "longitude": -80.025247, "type": "Senior/Community Center", "is_existing_center": false, "site_id": 15 }, "geometry": { "type": "Point", "coordinates": [ -80.025247, 40.455313 ] } },
{ "type": "Feature", "properties": { "site_name": "Morningside Community Center", "latitude": 40.4817581, "longitude": -79.9299973, "type": "Senior/Community Center", "is_existing_center": false, "site_id": 16 }, "geometry": { "type": "Point", "coordinates": [ -79.9299973, 40.4817581 ] } },
{ "type": "Feature", "properties": { "site_name": "Wilkinsburg Community Center", "latitude": 40.4432677, "longitude": -79.8860979, "type": "Senior/Community Center", "is_existing_center": false, "site_id": 17 }, "geometry": { "type": "Point", "coordinates": [ -79.8860979, 40.4432677 ] } },
{ "type": "Feature", "properties": { "site_name": "Allegheny Northside Senior Center and Hazlett Theater", "latitude": 40.45309924, "longitude": -80.00534252, "type": "Senior", "is_existing_center": false, "site_id": 18 }, "geometry": { "type": "Point", "coordinates": [ -80.00534252, 40.45309924 ] } },
{ "type": "Feature", "properties": { "site_name": "Ammon Recreation Center", "latitude": 40.44873494, "longitude": -79.97785631000001, "type": "Pool", "is_existing_center": false, "site_id": 19 }, "geometry": { "type": "Point", "coordinates": [ -79.97785631, 40.44873494 ] } },
{ "type": "Feature", "properties": { "site_name": "Arlington Pool Restrooms", "latitude": 40.41775268, "longitude": -79.97468811, "type": "Pool", "is_existing_center": false, "site_id": 20 }, "geometry": { "type": "Point", "coordinates": [ -79.97468811, 40.41775268 ] } },
{ "type": "Feature", "properties": { "site_name": "Banksville Pool Building and Shelter", "latitude": 40.41478443, "longitude": -80.04017572, "type": "Pool", "is_existing_center": false, "site_id": 21 }, "geometry": { "type": "Point", "coordinates": [ -80.04017572, 40.41478443 ] } },
{ "type": "Feature", "properties": { "site_name": "Beechview Senior and Community Center", "latitude": 40.4107409, "longitude": -80.02436259, "type": "Senior", "is_existing_center": false, "site_id": 22 }, "geometry": { "type": "Point", "coordinates": [ -80.02436259, 40.4107409 ] } },
{ "type": "Feature", "properties": { "site_name": "Bloomfield Pool and Recreation Center", "latitude": 40.46213307, "longitude": -79.95358858, "type": "Pool/Rec", "is_existing_center": false, "site_id": 23 }, "geometry": { "type": "Point", "coordinates": [ -79.95358858, 40.46213307 ] } },
{ "type": "Feature", "properties": { "site_name": "Brighton Heights Pool Building", "latitude": 40.48685655, "longitude": -80.03099689, "type": "Pool", "is_existing_center": false, "site_id": 24 }, "geometry": { "type": "Point", "coordinates": [ -80.03099689, 40.48685655 ] } },
{ "type": "Feature", "properties": { "site_name": "Brighton Heights Pool Guard Room", "latitude": 40.48697619, "longitude": -80.03101242, "type": "Pool", "is_existing_center": false, "site_id": 25 }, "geometry": { "type": "Point", "coordinates": [ -80.03101242, 40.48697619 ] } },
{ "type": "Feature", "properties": { "site_name": "Brighton Heights Senior Center", "latitude": 40.47927288, "longitude": -80.03583098, "type": "Senior", "is_existing_center": false, "site_id": 26 }, "geometry": { "type": "Point", "coordinates": [ -80.03583098, 40.47927288 ] } },
{ "type": "Feature", "properties": { "site_name": "Brookline Pool Building", "latitude": 40.39065072, "longitude": -80.00749196, "type": "Pool", "is_existing_center": false, "site_id": 27 }, "geometry": { "type": "Point", "coordinates": [ -80.00749196, 40.39065072 ] } },
{ "type": "Feature", "properties": { "site_name": "Brookline Pool Guard Room", "latitude": 40.39074934, "longitude": -80.00754814, "type": "Pool", "is_existing_center": false, "site_id": 28 }, "geometry": { "type": "Point", "coordinates": [ -80.00754814, 40.39074934 ] } },
{ "type": "Feature", "properties": { "site_name": "Burgwin Pool Building", "latitude": 40.40499997, "longitude": -79.93715454, "type": "Pool", "is_existing_center": false, "site_id": 29 }, "geometry": { "type": "Point", "coordinates": [ -79.93715454, 40.40499997 ] } },
{ "type": "Feature", "properties": { "site_name": "East Hills Pool Building", "latitude": 40.45349658, "longitude": -79.87099826, "type": "Pool", "is_existing_center": false, "site_id": 30 }, "geometry": { "type": "Point", "coordinates": [ -79.87099826, 40.45349658 ] } },
{ "type": "Feature", "properties": { "site_name": "Fairywood Pool Building", "latitude": 40.44925858, "longitude": -80.08084917, "type": "Pool Closed", "is_existing_center": false, "site_id": 31 }, "geometry": { "type": "Point", "coordinates": [ -80.08084917, 40.44925858 ] } },
{ "type": "Feature", "properties": { "site_name": "Glen Hazel Senior Center", "latitude": 40.40674251, "longitude": -79.93311132, "type": "Senior", "is_existing_center": false, "site_id": 32 }, "geometry": { "type": "Point", "coordinates": [ -79.93311132, 40.40674251 ] } },
{ "type": "Feature", "properties": { "site_name": "Hazelwood Community Center", "latitude": 40.40647495, "longitude": -79.94265993, "type": "Community", "is_existing_center": false, "site_id": 33 }, "geometry": { "type": "Point", "coordinates": [ -79.94265993, 40.40647495 ] } },
{ "type": "Feature", "properties": { "site_name": "Highland Park Pool Building", "latitude": 40.48218369, "longitude": -79.91173714, "type": "Pool", "is_existing_center": false, "site_id": 34 }, "geometry": { "type": "Point", "coordinates": [ -79.91173714, 40.48218369 ] } },
{ "type": "Feature", "properties": { "site_name": "Homewood Pool Building", "latitude": 40.45423673, "longitude": -79.90010495, "type": "Pool", "is_existing_center": false, "site_id": 35 }, "geometry": { "type": "Point", "coordinates": [ -79.90010495, 40.45423673 ] } },
{ "type": "Feature", "properties": { "site_name": "Leslie Pool Building", "latitude": 40.47344815, "longitude": -79.95738891000001, "type": "Pool Closed", "is_existing_center": false, "site_id": 36 }, "geometry": { "type": "Point", "coordinates": [ -79.95738891, 40.47344815 ] } },
{ "type": "Feature", "properties": { "site_name": "Magee Pool Building", "latitude": 40.42506023, "longitude": -79.93711661, "type": "Pool", "is_existing_center": false, "site_id": 37 }, "geometry": { "type": "Point", "coordinates": [ -79.93711661, 40.42506023 ] } },
{ "type": "Feature", "properties": { "site_name": "Magee Recreation Center", "latitude": 40.42437587, "longitude": -79.936772, "type": "Senior", "is_existing_center": false, "site_id": 38 }, "geometry": { "type": "Point", "coordinates": [ -79.936772, 40.42437587 ] } },
{ "type": "Feature", "properties": { "site_name": "Manchester Pool Building", "latitude": 40.45870807, "longitude": -80.02578805, "type": "Pool Closed", "is_existing_center": false, "site_id": 39 }, "geometry": { "type": "Point", "coordinates": [ -80.02578805, 40.45870807 ] } },
{ "type": "Feature", "properties": { "site_name": "Martin Luther King Cultural Center", "latitude": 40.45209494, "longitude": -79.96387834, "type": "Community", "is_existing_center": false, "site_id": 40 }, "geometry": { "type": "Point", "coordinates": [ -79.96387834, 40.45209494 ] } },
{ "type": "Feature", "properties": { "site_name": "McBride Swimming Pool Building", "latitude": 40.37025225, "longitude": -79.90740949000001, "type": "Pool", "is_existing_center": false, "site_id": 41 }, "geometry": { "type": "Point", "coordinates": [ -79.90740949, 40.37025225 ] } },
{ "type": "Feature", "properties": { "site_name": "McKinley Park Activities Building", "latitude": 40.41368229, "longitude": -80.00422549, "type": "Senior", "is_existing_center": false, "site_id": 42 }, "geometry": { "type": "Point", "coordinates": [ -80.00422549, 40.41368229 ] } },
{ "type": "Feature", "properties": { "site_name": "Moore Pool and Recreation Building", "latitude": 40.40551162, "longitude": -80.01396647, "type": "Pool/Rec", "is_existing_center": false, "site_id": 43 }, "geometry": { "type": "Point", "coordinates": [ -80.01396647, 40.40551162 ] } },
{ "type": "Feature", "properties": { "site_name": "Morningside Senior Center", "latitude": 40.48390558, "longitude": -79.92498368, "type": "Senior", "is_existing_center": false, "site_id": 44 }, "geometry": { "type": "Point", "coordinates": [ -79.92498368, 40.48390558 ] } },
{ "type": "Feature", "properties": { "site_name": "Oliver Bath House", "latitude": 40.42959711, "longitude": -79.98887873, "type": "Pool", "is_existing_center": false, "site_id": 45 }, "geometry": { "type": "Point", "coordinates": [ -79.98887873, 40.42959711 ] } },
{ "type": "Feature", "properties": { "site_name": "Ormsby Pool and Recreation Center", "latitude": 40.42908967, "longitude": -79.97429674, "type": "Pool/Rec", "is_existing_center": false, "site_id": 46 }, "geometry": { "type": "Point", "coordinates": [ -79.97429674, 40.42908967 ] } },
{ "type": "Feature", "properties": { "site_name": "Overbrook Community Center", "latitude": 40.38483705, "longitude": -79.995351, "type": "Community", "is_existing_center": false, "site_id": 47 }, "geometry": { "type": "Point", "coordinates": [ -79.995351, 40.38483705 ] } },
{ "type": "Feature", "properties": { "site_name": "Overbrook Senior Center", "latitude": 40.38847171, "longitude": -79.9956976, "type": "Senior", "is_existing_center": false, "site_id": 48 }, "geometry": { "type": "Point", "coordinates": [ -79.9956976, 40.38847171 ] } },
{ "type": "Feature", "properties": { "site_name": "Paulson Pool Building", "latitude": 40.4686146, "longitude": -79.90115812000001, "type": "Pool", "is_existing_center": false, "site_id": 49 }, "geometry": { "type": "Point", "coordinates": [ -79.90115812, 40.4686146 ] } },
{ "type": "Feature", "properties": { "site_name": "Paulson Pool Guard Room", "latitude": 40.46871448, "longitude": -79.9010745, "type": "Pool Closed", "is_existing_center": false, "site_id": 50 }, "geometry": { "type": "Point", "coordinates": [ -79.9010745, 40.46871448 ] } },
{ "type": "Feature", "properties": { "site_name": "Phillips Gym and Recreation Center", "latitude": 40.39156272, "longitude": -79.99097801000001, "type": "Pool/Rec", "is_existing_center": false, "site_id": 51 }, "geometry": { "type": "Point", "coordinates": [ -79.99097801, 40.39156272 ] } },
{ "type": "Feature", "properties": { "site_name": "Ream Pool Building and Recreation Center", "latitude": 40.43096473, "longitude": -80.01348232, "type": "Pool", "is_existing_center": false, "site_id": 52 }, "geometry": { "type": "Point", "coordinates": [ -80.01348232, 40.43096473 ] } },
{ "type": "Feature", "properties": { "site_name": "Riverview Pool Building", "latitude": 40.47971734, "longitude": -80.01817492000001, "type": "Pool", "is_existing_center": false, "site_id": 53 }, "geometry": { "type": "Point", "coordinates": [ -80.01817492, 40.47971734 ] } },
{ "type": "Feature", "properties": { "site_name": "Schenley Park Pool Building", "latitude": 40.43453727, "longitude": -79.94671026, "type": "Pool", "is_existing_center": false, "site_id": 54 }, "geometry": { "type": "Point", "coordinates": [ -79.94671026, 40.43453727 ] } },
{ "type": "Feature", "properties": { "site_name": "Sheraden Pool Building", "latitude": 40.45729593, "longitude": -80.05975634000001, "type": "Pool", "is_existing_center": false, "site_id": 55 }, "geometry": { "type": "Point", "coordinates": [ -80.05975634, 40.45729593 ] } },
{ "type": "Feature", "properties": { "site_name": "Southside Market House", "latitude": 40.42943651, "longitude": -79.9865169, "type": "Senior", "is_existing_center": false, "site_id": 56 }, "geometry": { "type": "Point", "coordinates": [ -79.9865169, 40.42943651 ] } },
{ "type": "Feature", "properties": { "site_name": "Sue Murray Filter Building", "latitude": 40.45108643, "longitude": -80.00177498, "type": "Pool", "is_existing_center": false, "site_id": 57 }, "geometry": { "type": "Point", "coordinates": [ -80.00177498, 40.45108643 ] } },
{ "type": "Feature", "properties": { "site_name": "Sue Murray Pool Building", "latitude": 40.45095346, "longitude": -80.00140987, "type": "Pool", "is_existing_center": false, "site_id": 58 }, "geometry": { "type": "Point", "coordinates": [ -80.00140987, 40.45095346 ] } },
{ "type": "Feature", "properties": { "site_name": "Warrington Recreation Center", "latitude": 40.42126474, "longitude": -80.00095723, "type": "Pool/Rec", "is_existing_center": false, "site_id": 59 }, "geometry": { "type": "Point", "coordinates": [ -80.00095723, 40.42126474 ] } },
{ "type": "Feature", "properties": { "site_name": "West End Senior Center", "latitude": 40.43886415, "longitude": -80.03470926, "type": "Senior", "is_existing_center": false, "site_id": 60 }, "geometry": { "type": "Point", "coordinates": [ -80.03470926, 40.43886415 ] } },
{ "type": "Feature", "properties": { "site_name": "West Penn Pool Building", "latitude": 40.4552907, "longitude": -79.96961251, "type": "Pool", "is_existing_center": false, "site_id": 61 }, "geometry": { "type": "Point", "coordinates": [ -79.96961251, 40.4552907 ] } },
{ "type": "Feature", "properties": { "site_name": "West Penn Pool Entrance Building", "latitude": 40.45540478, "longitude": -79.96974834, "type": "Pool", "is_existing_center": false, "site_id": 62 }, "geometry": { "type": "Point", "coordinates": [ -79.96974834, 40.45540478 ] } },
{ "type": "Feature", "properties": { "site_name": "West Penn Recreation Center", "latitude": 40.45565165, "longitude": -79.96954385, "type": "Pool/Rec", "is_existing_center": false, "site_id": 63 }, "geometry": { "type": "Point", "coordinates": [ -79.96954385, 40.45565165 ] } },
{ "type": "Feature", "properties": { "site_name": "Westwood Pool Building", "latitude": 40.4310921, "longitude": -80.04982389, "type": "Pool", "is_existing_center": false, "site_id": 64 }, "geometry": { "type": "Point", "coordinates": [ -80.04982389, 40.4310921 ] } },
{ "type": "Feature", "properties": { "site_name": "Westwood Pool Guard Room", "latitude": 40.4310741, "longitude": -80.04994999, "type": "Pool", "is_existing_center": false, "site_id": 65 }, "geometry": { "type": "Point", "coordinates": [ -80.04994999, 40.4310741 ] } },
{ "type": "Feature", "properties": { "site_name": "Morningside Crossing", "latitude": 40.48612326, "longitude": -79.92583181000001, "type": "Senior", "is_existing_center": false, "site_id": 66 }, "geometry": { "type": "Point", "coordinates": [ -79.92583181, 40.48612326 ] } },
{ "type": "Feature", "properties": { "site_name": "Fowler Pool Buiding", "latitude": 40.46889224, "longitude": -80.01372928000001, "type": "Pool", "is_existing_center": false, "site_id": 67 }, "geometry": { "type": "Point", "coordinates": [ -80.01372928, 40.46889224 ] } },
{ "type": "Feature", "properties": { "site_name": "ALLEGHENY LIBRARY", "latitude": 40.456392, "longitude": -80.006613, "type": "Library", "is_existing_center": false, "site_id": 68 }, "geometry": { "type": "Point", "coordinates": [ -80.006613, 40.456392 ] } },
{ "type": "Feature", "properties": { "site_name": "BEECHVIEW LIBRARY", "latitude": 40.407026, "longitude": -80.027741, "type": "Library", "is_existing_center": false, "site_id": 69 }, "geometry": { "type": "Point", "coordinates": [ -80.027741, 40.407026 ] } },
{ "type": "Feature", "properties": { "site_name": "BROOKLINE LIBRARY", "latitude": 40.394399, "longitude": -80.021427, "type": "Library", "is_existing_center": false, "site_id": 70 }, "geometry": { "type": "Point", "coordinates": [ -80.021427, 40.394399 ] } },
{ "type": "Feature", "properties": { "site_name": "CARRICK LIBRARY", "latitude": 40.397019, "longitude": -79.987547, "type": "Library", "is_existing_center": false, "site_id": 71 }, "geometry": { "type": "Point", "coordinates": [ -79.987547, 40.397019 ] } },
{ "type": "Feature", "properties": { "site_name": "DOWNTOWN & BUSINESS LIBRARY", "latitude": 40.441749, "longitude": -79.997112, "type": "Library", "is_existing_center": false, "site_id": 72 }, "geometry": { "type": "Point", "coordinates": [ -79.997112, 40.441749 ] } },
{ "type": "Feature", "properties": { "site_name": "EAST LIBERTY LIBRARY", "latitude": 40.460963, "longitude": -79.926502, "type": "Library", "is_existing_center": false, "site_id": 73 }, "geometry": { "type": "Point", "coordinates": [ -79.926502, 40.460963 ] } },
{ "type": "Feature", "properties": { "site_name": "HAZELWOOD LIBRARY", "latitude": 40.409805, "longitude": -79.943849, "type": "Library", "is_existing_center": false, "site_id": 74 }, "geometry": { "type": "Point", "coordinates": [ -79.943849, 40.409805 ] } },
{ "type": "Feature", "properties": { "site_name": "HILL DISTRICT LIBRARY", "latitude": 40.445471, "longitude": -79.976706, "type": "Library", "is_existing_center": false, "site_id": 75 }, "geometry": { "type": "Point", "coordinates": [ -79.976706, 40.445471 ] } },
{ "type": "Feature", "properties": { "site_name": "HOMEWOOD LIBRARY", "latitude": 40.455284, "longitude": -79.899213, "type": "Library", "is_existing_center": false, "site_id": 76 }, "geometry": { "type": "Point", "coordinates": [ -79.899213, 40.455284 ] } },
{ "type": "Feature", "properties": { "site_name": "KNOXVILLE LIBRARY", "latitude": 40.413186, "longitude": -79.989149, "type": "Library", "is_existing_center": false, "site_id": 77 }, "geometry": { "type": "Point", "coordinates": [ -79.989149, 40.413186 ] } },
{ "type": "Feature", "properties": { "site_name": "LAWRENCEVILLE LIBRARY", "latitude": 40.467605, "longitude": -79.959082, "type": "Library", "is_existing_center": false, "site_id": 78 }, "geometry": { "type": "Point", "coordinates": [ -79.959082, 40.467605 ] } },
{ "type": "Feature", "properties": { "site_name": "LIBRARY FOR THE BLIND & PHYSICALLY HANDICAPPED", "latitude": 40.453817, "longitude": -79.949183, "type": "Library", "is_existing_center": false, "site_id": 79 }, "geometry": { "type": "Point", "coordinates": [ -79.949183, 40.453817 ] } },
{ "type": "Feature", "properties": { "site_name": "MAIN (OAKLAND) LIBRARY", "latitude": 40.443458, "longitude": -79.949011, "type": "Library", "is_existing_center": false, "site_id": 80 }, "geometry": { "type": "Point", "coordinates": [ -79.949011, 40.443458 ] } },
{ "type": "Feature", "properties": { "site_name": "MOUNT WASHINGTON LIBRARY", "latitude": 40.433509, "longitude": -80.010487, "type": "Library", "is_existing_center": false, "site_id": 81 }, "geometry": { "type": "Point", "coordinates": [ -80.010487, 40.433509 ] } },
{ "type": "Feature", "properties": { "site_name": "SHERADEN LIBRARY", "latitude": 40.45521, "longitude": -80.056555, "type": "Library", "is_existing_center": false, "site_id": 82 }, "geometry": { "type": "Point", "coordinates": [ -80.056555, 40.45521 ] } },
{ "type": "Feature", "properties": { "site_name": "SOUTH SIDE LIBRARY", "latitude": 40.428631, "longitude": -79.974224, "type": "Library", "is_existing_center": false, "site_id": 83 }, "geometry": { "type": "Point", "coordinates": [ -79.974224, 40.428631 ] } },
{ "type": "Feature", "properties": { "site_name": "SQUIRREL HILL LIBRARY", "latitude": 40.438574, "longitude": -79.922623, "type": "Library", "is_existing_center": false, "site_id": 84 }, "geometry": { "type": "Point", "coordinates": [ -79.922623, 40.438574 ] } },
{ "type": "Feature", "properties": { "site_name": "WEST END LIBRARY", "latitude": 40.440057, "longitude": -80.034045, "type": "Library", "is_existing_center": false, "site_id": 85 }, "geometry": { "type": "Point", "coordinates": [ -80.034045, 40.440057 ] } },
{ "type": "Feature", "properties": { "site_name": "WOODS RUN LIBRARY", "latitude": 40.476254, "longitude": -80.030204, "type": "Library", "is_existing_center": false, "site_id": 86 }, "geometry": { "type": "Point", "coordinates": [ -80.030204, 40.476254 ] } }
]
}
