{
"type": "FeatureCollection",
"name": "libraries",
"crs": { "type": "name", "properties": { "name": "urn:ogc:def:crs:OGC:1.3:CRS84" } },
"features": [
{ "type": "Feature", "properties": { "_id": 2, "CLPID": "CLP01", "Name": "ALLEGHENY LIBRARY", "Address": "1230 FEDERAL ST", "City": "PITTSBURGH", "State": "PA", "Zip4": "15212-4704", "County": "Allegheny", "Phone": "(412) 237-1890", "SqFt": 15005, "MoOpen": "10:00:00", "MoClose": "20:00:00", "TuOpen": "10:00:00", "TuClose": "20:00:00", "WeOpen": "10:00:00", "WeClose": "20:00:00", "ThOpen": "10:00:00", "ThClose": "20:00:00", "FrOpen": "10:00:00", "FrClose": "17:00:00", "SaOpen": "10:00:00", "SaClose": "17:00:00", "SuOpen": "12:00:00", "SuClose": "17:00:00", "Lat": 40.456392, "Lon": -80.006613 }, "geometry": { "type": "Point", "coordinates": [ -80.006613, 40.456392 ] } },
{ "type": "Feature", "properties": { "_id": 3, "CLPID": "CLP02", "Name": "BEECHVIEW LIBRARY", "Address": "1910 BROADWAY AVE", "City": "PITTSBURGH", "State": "PA", "Zip4": "15216-3130", "County": "Allegheny", "Phone": "(412) 563-2900", "SqFt": 8000, "MoOpen": "10:00:00", "MoClose": "17:00:00", "TuOpen": "10:00:00", "TuClose": "20:00:00", "WeOpen": "10:00:00", "WeClose": "20:00:00", "ThOpen": "10:00:00", "ThClose": "20:00:00", "FrOpen": "10:00:00", "FrClose": "17:00:00", "SaOpen": "10:00:00", "SaClose": "17:00:00", "SuOpen": null, "SuClose": null, "Lat": 40.407026, "Lon": -80.027741 }, "geometry": { "type": "Point", "coordinates": [ -80.027741, 40.407026 ] } },
{ "type": "Feature", "properties": { "_id": 4, "CLPID": "CLP03", "Name": "BROOKLINE LIBRARY", "Address": "708 BROOKLINE BLVD", "City": "PITTSBURGH", "State": "PA", "Zip4": "15226-2102", "County": "Allegheny", "Phone": "(412) 561-1003", "SqFt": 12651, "MoOpen": "10:00:00", "MoClose": "20:00:00", "TuOpen": "10:00:00", "TuClose": "20:00:00", "WeOpen": "10:00:00", "WeClose": "20:00:00", "ThOpen": "10:00:00", "ThClose": "20:00:00", "FrOpen": "10:00:00", "FrClose": "17:00:00", "SaOpen": "10:00:00", "SaClose": "17:00:00", "SuOpen": null, "SuClose": null, "Lat": 40.394399, "Lon": -80.021427 }, "geometry": { "type": "Point", "coordinates": [ -80.021427, 40.394399 ] } },
{ "type": "Feature", "properties": { "_id": 5, "CLPID": "CLP04", "Name": "CARRICK LIBRARY", "Address": "1811 BROWNSVILLE RD", "City": "PITTSBURGH", "State": "PA", "Zip4": "15210-3907", "County": "Allegheny", "Phone": "(412) 882-3897", "SqFt": 4000, "MoOpen": null, "MoClose": null, "TuOpen": null, "TuClose": null, "WeOpen": null, "WeClose": null, "ThOpen": null, "ThClose": null, "FrOpen": null, "FrClose": null, "SaOpen": null, "SaClose": null, "SuOpen": null, "SuClose": null, "Lat": 40.397019, "Lon": -79.987547 }, "geometry": { "type": "Point", "coordinates": [ -79.987547, 40.397019 ] } },
{ "type": "Feature", "properties": { "_id": 6, "CLPID": "CLP05", "Name": "DOWNTOWN & BUSINESS LIBRARY", "Address": "612 SMITHFIELD ST", "City": "PITTSBURGH", "State": "PA", "Zip4": "15222-2506", "County": "Allegheny", "Phone": "(412) 281-7141", "SqFt": 12709, "MoOpen": "08:30:00", "MoClose": "18:00:00", "TuOpen": "08:30:00", "TuClose": "18:00:00", "WeOpen": "08:30:00", "WeClose": "18:00:00", "ThOpen": "08:30:00", "ThClose": "18:00:00", "FrOpen": "08:30:00", "FrClose": "17:00:00", "SaOpen": "10:00:00", "SaClose": "17:00:00", "SuOpen": null, "SuClose": null, "Lat": 40.441749, "Lon": -79.997112 }, "geometry": { "type": "Point", "coordinates": [ -79.997112, 40.441749 ] } },
{ "type": "Feature", "properties": { "_id": 7, "CLPID": "CLP06", "Name": "EAST LIBERTY LIBRARY", "Address": "130 SOUTH WHITFIELD ST", "City": "PITTSBURGH", "State": "PA", "Zip4": "15206-3806", "County": "Allegheny", "Phone": "(412) 363-8232", "SqFt": 40000, "MoOpen": "10:00:00", "MoClose": "20:00:00", "TuOpen": "10:00:00", "TuClose": "20:00:00", "WeOpen": "10:00:00", "WeClose": "20:00:00", "ThOpen": "10:00:00", "ThClose": "20:00:00", "FrOpen": "10:00:00", "FrClose": "17:00:00", "SaOpen": "10:00:00", "SaClose": "17:00:00", "SuOpen": null, "SuClose": null, "Lat": 40.460963, "Lon": -79.926502 }, "geometry": { "type": "Point", "coordinates": [ -79.926502, 40.460963 ] } },
{ "type": "Feature", "properties": { "_id": 8, "CLPID": "CLP07", "Name": "HAZELWOOD LIBRARY", "Address": "5006 SECOND AVE", "City": "PITTSBURGH", "State": "PA", "Zip4": "15207-1625", "County": "Allegheny", "Phone": "(412) 421-2517", "SqFt": 7000, "MoOpen": "10:00:00", "MoClose": "17:00:00", "TuOpen": "10:00:00", "TuClose": "20:00:00", "WeOpen": "10:00:00", "WeClose": "20:00:00", "ThOpen": "10:00:00", "ThClose": "20:00:00", "FrOpen": "10:00:00", "FrClose": "17:00:00", "SaOpen": "10:00:00", "SaClose": "17:00:00", "SuOpen": null, "SuClose": null, "Lat": 40.409805, "Lon": -79.943849 }, "geometry": { "type": "Point", "coordinates": [ -79.943849, 40.409805 ] } },
{ "type": "Feature", "properties": { "_id": 9, "CLPID": "CLP08", "Name": "HILL DISTRICT LIBRARY", "Address": "2177 CENTRE AVE", "City": "PITTSBURGH", "State": "PA", "Zip4": "15219-6316", "County": "Allegheny", "Phone": "(412) 281-3753", "SqFt": 8333, "MoOpen": "10:00:00", "MoClose": "20:00:00", "TuOpen": "10:00:00", "TuClose": "20:00:00", "WeOpen": "10:00:00", "WeClose": "20:00:00", "ThOpen": "10:00:00", "ThClose": "17:00:00", "FrOpen": "10:00:00", "FrClose": "17:00:00", "SaOpen": "10:00:00", "SaClose": "17:00:00", "SuOpen": null, "SuClose": null, "Lat": 40.445471, "Lon": -79.976706 }, "geometry": { "type": "Point", "coordinates": [ -79.976706, 40.445471 ] } },
{ "type": "Feature", "properties": { "_id": 10, "CLPID": "CLP09", "Name": "HOMEWOOD LIBRARY", "Address": "7101 HAMILTON AVE", "City": "PITTSBURGH", "State": "PA", "Zip4": "15208-2847", "County": "Allegheny", "Phone": "(412) 731-3080", "SqFt": 28776, "MoOpen": "10:00:00", "MoClose": "17:00:00", "TuOpen": "10:00:00", "TuClose": "20:00:00", "WeOpen": "10:00:00", "WeClose": "20:00:00", "ThOpen": "10:00:00", "ThClose": "20:00:00", "FrOpen": "10:00:00", "FrClose": "17:00:00", "SaOpen": "10:00:00", "SaClose": "17:00:00", "SuOpen": null, "SuClose": null, "Lat": 40.455284, "Lon": -79.899213 }, "geometry": { "type": "Point", "coordinates": [ -79.899213, 40.455284 ] } },
{ "type": "Feature", "properties": { "_id": 11, "CLPID": "CLP10", "Name": "KNOXVILLE LIBRARY", "Address": "400 BROWNSVILLE RD", "City": "PITTSBURGH", "State": "PA", "Zip4": "15210-2251", "County": "Allegheny", "Phone": "(412) 381-6543", "SqFt": 6700, "MoOpen": "10:00:00", "MoClose": "20:00:00", "TuOpen": "10:00:00", "TuClose": "20:00:00", "WeOpen": "10:00:00", "WeClose": "20:00:00", "ThOpen": "10:00:00", "ThClose": "17:00:00", "FrOpen": "10:00:00", "FrClose": "17:00:00", "SaOpen": "10:00:00", "SaClose": "17:00:00", "SuOpen": null, "SuClose": null, "Lat": 40.413186, "Lon": -79.989149 }, "geometry": { "type": "Point", "coordinates": [ -79.989149, 40.413186 ] } },
{ "type": "Feature", "properties": { "_id": 12, "CLPID": "CLP11", "Name": "LAWRENCEVILLE LIBRARY", "Address": "279 FISK ST", "City": "PITTSBURGH", "State": "PA", "Zip4": "15201-2898", "County": "Allegheny", "Phone": "(412) 682-3668", "SqFt": 10345, "MoOpen": "10:00:00", "MoClose": "20:00:00", "TuOpen": "10:00:00", "TuClose": "20:00:00", "WeOpen": "10:00:00", "WeClose": "20:00:00", "ThOpen": "10:00:00", "ThClose": "17:00:00", "FrOpen": "10:00:00", "FrClose": "17:00:00", "SaOpen": "10:00:00", "SaClose": "17:00:00", "SuOpen": null, "SuClose": null, "Lat": 40.467605, "Lon": -79.959082 }, "geometry": { "type": "Point", "coordinates": [ -79.959082, 40.467605 ] } },
{ "type": "Feature", "properties": { "_id": 13, "CLPID": "CLP12", "Name": "LIBRARY FOR THE BLIND & PHYSICALLY HANDICAPPED", "Address": "4724 BAUM BLVD", "City": "PITTSBURGH", "State": "PA", "Zip4": "15213-1321", "County": "Allegheny", "Phone": "(412) 687-2440", "SqFt": 34425, "MoOpen": "09:00:00", "MoClose": "17:00:00", "TuOpen": "09:00:00", "TuClose": "17:00:00", "WeOpen": "09:00:00", "WeClose": "17:00:00", "ThOpen": "09:00:00", "ThClose": "17:00:00", "FrOpen": "09:00:00", "FrClose": "17:00:00", "SaOpen": null, "SaClose": null, "SuOpen": null, "SuClose": null, "Lat": 40.453817, "Lon": -79.949183 }, "geometry": { "type": "Point", "coordinates": [ -79.949183, 40.453817 ] } },
{ "type": "Feature", "properties": { "_id": 14, "CLPID": "CLP13", "Name": "MAIN (OAKLAND) LIBRARY", "Address": "4400 FORBES AVENUE", "City": "PITTSBURGH", "State": "PA", "Zip4": "15213-4080", "County": "Allegheny", "Phone": "(412) 622-3114", "SqFt": 204048, "MoOpen": "10:00:00", "MoClose": "20:00:00", "TuOpen": "10:00:00", "TuClose": "20:00:00", "WeOpen": "10:00:00", "WeClose": "20:00:00", "ThOpen": "10:00:00", "ThClose": "20:00:00", "FrOpen": "10:00:00", "FrClose": "17:30:00", "SaOpen": "10:00:00", "SaClose": "17:30:00", "SuOpen": "12:00:00", "SuClose": "17:00:00", "Lat": 40.443458, "Lon": -79.949011 }, "geometry": { "type": "Point", "coordinates": [ -79.949011, 40.443458 ] } },
{ "type": "Feature", "properties": { "_id": 15, "CLPID": "CLP14", "Name": "MOUNT WASHINGTON LIBRARY", "Address": "315 GRANDVIEW AVE", "City": "PITTSBURGH", "State": "PA", "Zip4": "15211-1549", "County": "Allegheny", "Phone": "(412) 381-3380", "SqFt": 4915, "MoOpen": "10:00:00", "MoClose": "17:00:00", "TuOpen": "10:00:00", "TuClose": "20:00:00", "WeOpen": "10:00:00", "WeClose": "20:00:00", "ThOpen": "10:00:00", "ThClose": "20:00:00", "FrOpen": "10:00:00", "FrClose": "17:00:00", "SaOpen": "10:00:00", "SaClose": "17:00:00", "SuOpen": null, "SuClose": null, "Lat": 40.433509, "Lon": -80.010487 }, "geometry": { "type": "Point", "coordinates": [ -80.010487, 40.433509 ] } },
{ "type": "Feature", "properties": { "_id": 16, "CLPID": "CLP15", "Name": "SHERADEN LIBRARY", "Address": "720 SHERWOOD AVE", "City": "PITTSBURGH", "State": "PA", "Zip4": "15204-1724", "County": "Allegheny", "Phone": "(412) 331-1135", "SqFt": 4591, "MoOpen": "10:00:00", "MoClose": "20:00:00", "TuOpen": "10:00:00", "TuClose": "20:00:00", "WeOpen": "10:00:00", "WeClose": "20:00:00", "ThOpen": "10:00:00", "ThClose": "17:00:00", "FrOpen": "10:00:00", "FrClose": "17:00:00", "SaOpen": "10:00:00", "SaClose": "17:00:00", "SuOpen": null, "SuClose": null, "Lat": 40.45521, "Lon": -80.056555 }, "geometry": { "type": "Point", "coordinates": [ -80.056555, 40.45521 ] } },
{ "type": "Feature", "properties": { "_id": 17, "CLPID": "CLP16", "Name": "SOUTH SIDE LIBRARY", "Address": "2205 E CARSON ST", "City": "PITTSBURGH", "State": "PA", "Zip4": "15203-2107", "County": "Allegheny", "Phone": "(412) 431-0505", "SqFt": 11610, "MoOpen": "10:00:00", "MoClose": "20:00:00", "TuOpen": "10:00:00", "TuClose": "20:00:00", "WeOpen": "10:00:00", "WeClose": "20:00:00", "ThOpen": "10:00:00", "ThClose": "17:00:00", "FrOpen": "10:00:00", "FrClose": "17:00:00", "SaOpen": "10:00:00", "SaClose": "17:00:00", "SuOpen": "12:00:00", "SuClose": "17:00:00", "Lat": 40.428631, "Lon": -79.974224 }, "geometry": { "type": "Point", "coordinates": [ -79.974224, 40.428631 ] } },
{ "type": "Feature", "properties": { "_id": 18, "CLPID": "CLP17", "Name": "SQUIRREL HILL LIBRARY", "Address": "5801 FORBES AVE", "City": "PITTSBURGH", "State": "PA", "Zip4": "15217-1601", "County": "Allegheny", "Phone": "(412) 422-9650", "SqFt": 26706, "MoOpen": "10:00:00", "MoClose": "20:00:00", "TuOpen": "10:00:00", "TuClose": "20:00:00", "WeOpen": "10:00:00", "WeClose": "20:00:00", "ThOpen": "10:00:00", "ThClose": "20:00:00", "FrOpen": "10:00:00", "FrClose": "17:00:00", "SaOpen": "10:00:00", "SaClose": "17:00:00", "SuOpen": "12:00:00", "SuClose": "17:00:00", "Lat": 40.438574, "Lon": -79.922623 }, "geometry": { "type": "Point", "coordinates": [ -79.922623, 40.438574 ] } },
{ "type": "Feature", "properties": { "_id": 19, "CLPID": "CLP18", "Name": "WEST END LIBRARY", "Address": "47 WABASH AVE", "City": "PITTSBURGH", "State": "PA", "Zip4": "15220-5422", "County": "Allegheny", "Phone": "(412) 921-1717", "SqFt": 5000, "MoOpen": "10:00:00", "MoClose": "17:00:00", "TuOpen": "10:00:00", "TuClose": "20:00:00", "WeOpen": "10:00:00", "WeClose": "20:00:00", "ThOpen": "10:00:00", "ThClose": "20:00:00", "FrOpen": "10:00:00", "FrClose": "17:00:00", "SaOpen": "10:00:00", "SaClose": "17:00:00", "SuOpen": null, "SuClose": null, "Lat": 40.440057, "Lon": -80.034045 }, "geometry": { "type": "Point", "coordinates": [ -80.034045, 40.440057 ] } },
{ "type": "Feature", "properties": { "_id": 20, "CLPID": "CLP19", "Name": "WOODS RUN LIBRARY", "Address": "1201 WOODS RUN AVE", "City": "PITTSBURGH", "State": "PA", "Zip4": "15212-2335", "County": "Allegheny", "Phone": "(412) 761-3730", "SqFt": 5745, "MoOpen": "10:00:00", "MoClose": "17:00:00", "TuOpen": "10:00:00", "TuClose": "20:00:00", "WeOpen": "10:00:00", "WeClose": "20:00:00", "ThOpen": "10:00:00", "ThClose": "20:00:00", "FrOpen": "10:00:00", "FrClose": "17:00:00", "SaOpen": "10:00:00", "SaClose": "17:00:00", "SuOpen": null, "SuClose": null, "Lat": 40.476254, "Lon": -80.030204 }, "geometry": { "type": "Point", "coordinates": [ -80.030204, 40.476254 ] } }
]
}
